Trade	MktID	MarketName	TradableMnth	Weight	Slpg	Open	Close	CtCnt	Settle	BB	RIC	Tm1	Tm2	EnEndAdj	ExOT	ExPeriod	RebBegin	RebEnd	RollBegin	RollEnd	longMult	shortMult	TradeDir	longMult	shortMult	longShort	long	short	IBRoot	IBExch	OpenReg	URic	UIB	UR2NIntra	URNEX2d	UEm	Note	ProdWithAsian	longShort	longOnly	shortOnly	Note
Y	1101	Corn@CBT	[001010100001]	1	0.05%	19:00	13:20	8	13:15	C A Comdty	C	12:00	13:15	20	Vwap	10	19:05	21:05	19:05	21:05	0	1.8	0			N	N	N	ZC	ECBOT		Y	Y	Y	Y	Y		Y		1.5		long sr 0.97
N	1102	Corn@DCE	[100010001000]	1	0.05%	08:59	16:00	8		ACA Comdty	DCC	12:00		12	Vwap	2	09:04	11:04	09:04	11:04	0	0	0									N	N	N	N	N		N				
Y	1103	Maize@EOP	[101001010010]	1	0.16%	10:45	18:30	8	18:30	EPA Comdty	EMA	12:00	18:30	20	Vwap	10	10:50	12:50	10:50	12:50	1.8	0	0						EMA	MATIF		Y	Y	N	Y	N		N				
N	1201	Cotton@ZCE	[101010101010]	1	0.05%	21:00	15:00	8		VVA Comdty		12:00		12	Vwap	2	21:05	23:05	21:05	23:05	0	0	0									N	N	N	N	N		N				
Y	1202	Cotton No. 2@NYB	[001010100001]	1	0.05%	21:00	14:30	8	14:15	CTA Comdty	CT	12:00	14:15	20	Vwap	10	21:05	23:05	21:05	23:05	0	1.25	-1		1.9	N	N	Y	CT	NYBOT	21:00	Y	Y	Y	Y	Y		Y	1.7	1	1.9	
N	1301	Palm Oil@DCE	[100010001000]	1	0.05%	21:00	16:00	8		PALA Comdty	DCP	12:00		12	Vwap	2	21:05	23:05	21:05	23:05	0	0	0									N	N	N	N	N	liq	N				
N	1302	White Sugar@ZCE	[101010101010]	1	0.05%	21:00	15:00	8		CBA Comdty		12:00		12	Vwap	2	21:05	23:05	21:05	23:05	0	0	0									N	N	N	N	N		N				
Y	1303	Sugar No. 11@NYB	[001010100100]	1	0.05%	03:30	13:00	8	12:55	SBA Comdty	SB	12:00	12:30	30	Vwap	20	03:35	05:35	03:35	05:35	1.2	1.35	-1		1.15	N	N	Y	SB	NYBOT		Y	Y	Y	Y	Y		Y	0.9		0.85	long almost always lose
N	1304	Egg@DCE	[111111001111]	1	0.05%	08:59	16:00	8		DCEA Comdty		12:00		12	Vwap	2	09:04	11:04	09:04	11:04	0	0	0									N	N	N	N	N		N				
N	1305	London Cocoa No. 7@LIF	[001010101001]	1	0.05%	09:30	16:55	8	16:50	QCA Comdty	LCC	12:00	16:50	30	Vwap	20	09:35	11:35	09:35	11:35	0	0	0						C	ICEEUSOFT		Y	Y	Y	Y	Y		Y				Fix BST time
N	1306	Cocoa@NYB	[001010101001]	1	0.05%	04:45	13:30	8	11:50	CCA Comdty	CC	12:00	13:20	30	Vwap	20	04:50	06:50	04:50	06:50	0	0	0				N	N	CC	NYBOT		Y	Y	Y	Y	Y		Y				
N	1307	Coffee C@NYB	[001010101001]	1	0.05%	04:15	13:30	8	13:25	KCA Comdty	KC	12:00	13:25	30	Vwap	20	04:20	06:20	04:20	06:20	0	0	0						KC	NYBOT		Y	Y	Y	Y	Y		Y				
Y	1308	Robusta Coffee@LIF	[101010101010]	1	0.05%	09:00	17:30	8	17:25	DFA Comdty	LRC	12:00	12:30	30	Vwap	20	09:05	11:05	09:05	11:05	0	1.8	0	1.8	1.2	Y	Y	Y	D	ICEEUSOFT		Y	Y	Y	Y	Y		Y		1.8		Fix BST time
Y	1309	Sugar@LIF	[001010010101]	1	0.05%	08:45	18:00	8	17:55	QWA Comdty	LSU	12:00	18:00	30	Vwap	20	08:50	10:50	08:50	10:50	0	0.8	1	1.75		N	Y	N	W	ICEEUSOFT		Y	Y	Y	Y	Y		Y	1.5	1.75	1.35	best long sr @1.75; 
N	1310	Milk@CME	[111111111111]	1	0.05%	17:05	16:00	8	13:10	DAA Comdty	DA	12:00	13:10	12	Vwap	2	17:05	19:05	17:05	19:05	0	0	0						DA	GLOBEX		Y	Y	N	N	N	liq	N				
N	1311	FCOJ@NYB	[101010101010]	1	0.05%	08:00	14:00	8	13:30	JOA Comdty	OJ	12:00	14:00	30	Vwap	20	08:05	10:05	08:05	10:05	0	0	0						OJ	NYBOT		Y	Y	Y	Y	Y		Y				
Y	1401	Live Cattle@CME	[010101010101]	1	0.05%	08:30	13:05	8	13:00	LCA Comdty	LC	12:00	12:30	40	Vwap	30	08:35	09:35	08:35	09:35	1.8	1.55	0	1.35	1.65	Y	Y	Y	LE	GLOBEX	08:30	Y	Y	Y	Y	Y		N	1.65	1.8	1.65	
Y	1402	Lean Hogs@CME	[010101010101]	1	0.05%	08:30	13:05	8	13:00	LHA Comdty	LH	12:00	13:00	40	Vwap	30	08:35	09:35	08:35	09:35	1.5	1.65	0	1.35	0.85	Y	Y	Y	HE	GLOBEX	08:30	Y	Y	Y	Y	Y		Y	1.2	1.35	1	long sr2.36; short sr 1.9
N	1403	Feeder Cattle@CME	[101010011110]	1	0.05%	08:30	13:05	8	13:00	FCA Comdty	FC	12:00	13:00	40	Vwap	30	08:35	09:35	08:35	09:35	0	0	0	1.5	1.35	Y	Y	Y	GF	GLOBEX	08:30	Y	Y	N	Y	N	liq	N	1.35	1.5	1.35	
N	1501	Rapeseed@ZCE	[101010111010]	1	0.05%	21:00	15:00	8		ZRRA Comdty		12:00		12	Vwap	2	21:05	23:05	21:05	23:05	0	0	0									N	N	N	N	N		N				
N	1502	Rapeseed Oil@ZCE	[101010101010]	1	0.05%	21:00	15:00	8		ZROA Comdty		12:00		12	Vwap	2	21:05	23:05	21:05	23:05	0	0	0									N	N	N	N	N		N				
N	1503	Canola@WCE	[101010100010]	1	0.05%	19:00	13:20	8	13:15	RSA Comdty	RS	12:00	13:15	12	Vwap	2	19:05	21:05	19:05	21:05	0	0	0									N	N	N	N	N		N				
N	1504	Euro Rapeseed@EOP	[010010010010]	1	0.07%	10:45	18:30	8	18:30	IJA Comdty	COM	12:00	18:30	30	Vwap	20	10:50	12:50	10:50	12:50	0	0	0	1.8	1.5	Y	Y	Y	ECO	MATIF		Y	Y	N	Y	N		N	1.95	1.5	1.95	
N	1505	Early Indica Rice@ZCE	[101010101010]	1	0.05%	09:00	15:00	8		IRIA Comdty		12:00		12	Vwap	2	09:05	11:05	09:05	11:05	0	0	0									N	N	N	N	N		N				
ToAdd	1506	Oats@CBT	[001010100001]	1	0.05%	19:00	13:20	8	13:15	O A Comdty	O	12:00	13:15	12	Vwap	2	19:05	21:05	19:05	21:05	0	1.1	0	0.8	1				ZO	ECBOT		Y	Y	N	N	N	liq	N		0.8	1	
ToAdd	1507	Rough Rice@CBT	[101010101010]	1	0.05%	19:00	13:20	8	13:15	RRA Comdty	RR	12:00	13:15	12	Vwap	2	19:05	21:05	19:05	21:05	0	0.95	0	1.25	1				ZR	ECBOT		Y	Y	N	N	N	liq	N	1.35	1.25	1	
N	1601	Soymeal@DCE	[100010001000]	1	0.05%	21:00	16:00	8		AEA Comdty	DSM	12:00		12	Vwap	2	21:05	23:05	21:05	23:05	0	0	0									N	N	N	N	N		N				
N	1602	Soybean Oil@DCE	[100010001000]	1	0.05%	21:00	16:00	8		SHA Comdty	DBY	12:00		12	Vwap	2	21:05	23:05	21:05	23:05	0	0	0									N	N	N	N	N		N				
N	1603	Soybean No. 1@DCE	[100010001000]	1	0.05%	21:00	16:00	8		AKA Comdty	DSA	12:00		12	Vwap	2	21:05	23:05	21:05	23:05	0	0	0									N	N	N	N	N		N				
N	1604	Soybean@CBT	[100010100010]	1	0.05%	19:00	13:20	8	13:15	S A Comdty	S	12:00	13:15	20	Vwap	10	19:05	21:05	19:05	21:05	0	0	-1		0.55	N	N	Y	ZS	ECBOT		Y	Y	Y	Y	Y		Y	1.3	1.6	1.45	"long sr 0.8, ls sr 1.98; "
N	1605	Soybean Meal@CBT	[101010101001]	1	0.05%	19:00	13:20	8	13:15	SMA Comdty	SM	12:00	13:15	30	Vwap	20	19:05	21:05	19:05	21:05	0	0	0	0.5	0.55	Y	Y	Y	ZM	ECBOT		Y	Y	Y	Y	Y		Y	1.4	1.45	0.55	long sr 0.89; ls sr 2.97; short sr 3.29@0.55
Y	1606	Soybean Oil@CBT	[101010101001]	1	0.05%	19:00	13:20	8	13:15	BOA Comdty	BO	12:00	12:00	30	Vwap	20	19:05	21:05	19:05	21:05	1.6	0	0	1.6	1.25	Y	Y	Y	ZL	ECBOT		Y	Y	Y	Y	Y		Y	1.6	1.6	1.25	ls sr 1.32; long sr 1.55; short sr 1.4
N	1701	Winter Wheat@CBT	[001010101001]	1	0.05%	19:00	13:20	8	13:15	W A Comdty	W	12:00	13:15	30	Vwap	20	19:05	21:05	19:05	21:05	0	0	0	1.8	1.85				ZW	ECBOT		Y	Y	Y	Y	Y		Y	1.85	1.8	1.85	short sr 2
Y	1703	Hard Red Wheat@CBT	[001010101001]	1	0.05%	19:00	13:20	8	13:15	KWA Comdty	KW	12:00	13:15	30	Vwap	20	19:05	21:05	19:05	21:05	1.45	0	0				N	N	KE	ECBOT		Y	Y	Y	Y	Y		Y	1.5	1.5	1.6	short sr 1.34
N	1704	Strong Gluten Wheat@ZCE	[101010101010]	1	0.05%	09:00	15:00	8		VNA Comdty		12:00		12	Vwap	2	09:05	11:05	09:05	11:05	0	0	0									N	N	N	N	N		N				
ToAdd	1705	Red Spring Wheat@MGE	[001010101001]	1	0.05%	19:00	13:45	8	13:15	MWA Comdty	1MWE	12:00	13:15	20	Vwap	10	19:05	22:05	19:05	22:05	1.3	0	1	1.3			Y	N				N	N	N	N	N		N		1.3		long sr 2.08
Y	1706	Milling Wheat@EOP	[001010001001]	1	0.14%	10:45	19:30	8	18:30	CAA Comdty	BL2	18:00	18:30	30	Twap	20	10:50	12:50	10:50	12:50	2.5	2.5	1	1.95		N	Y	N	EBM	MATIF		Y	Y	N	Y	N		N		1.95		before 2015/09 [101010000010]
N	2101	Coke@DCE	[100010001000]	1	0.05%	21:00	16:00	8		KEEA Comdty	DCJ	12:00		12	Vwap	2	21:05	23:05	21:05	23:05	0	0	0									N	N	N	N	N		N				
N	2102	Coking Coal @DCE	[100010001000]	1	0.05%	21:00	16:00	8		CKCA Comdty		12:00		12	Vwap	2	21:05	23:05	21:05	23:05	0	0	0									N	N	N	N	N		N				
N	2103	Thermal Coal@ZCE	[111111111111]	1	0.05%	21:00	15:00	8		TRCA Comdty		12:00		12	Vwap	2	21:05	23:05	21:05	23:05	0	0	0									N	N	N	N	N		N				
Y	2201	Brent Crude Oil@ICE	[111111111111]	1	0.05%	01:00	23:00	8	19:30	COA Comdty	LCO	12:30	19:30	20	Vwap	10	01:05	03:05	01:05	03:05	0	1.35	-1		0.55				COIL	IPE	01:00	Y	Y	Y	Y	Y		Y	0.55	2	0.55	short sr 2.19
Y	2202	WTI Crude Oil@NYM	[111111111111]	1	0.05%	18:05	17:00	8	14:30	CLA Comdty	CL	12:00	12:30	20	Vwap	10	20:00	22:00	20:00	22:00	0.9	1.4	1	0.55	1.7	N	Y	N	CL	NYMEX	09:00	Y	Y	Y	Y	Y		Y	0.55	0.55	1.7	short sr 1.22
ToAdd	2203	WTI Crude Oil@ICE	[111111111111]	1	0.05%	01:00	23:00	8	19:30	ENA Comdty	WTCL	12:00	19:30	12	Vwap	2	01:05	03:05	01:05	03:05	0.95	0	1	0.95			Y	N	WTI	IPE		Y	Y	N	N	N		N	0.9	0.95		long sr 2.54; ls sr 0.9
N	2301	Natral Gas@NYM	[111111111111]	1	0.05%	18:05	17:00	8	14:30	NGA Comdty	NG	12:00	14:30	20	Vwap	10	20:00	22:00	20:00	22:00	0	0	-1		0.65	N	N	Y	NG	NYMEX	09:00	Y	Y	Y	Y	Y		Y	0.65	0.75	0.65	
N	2302	Natral Gas@ICE	[111111111111]	1	0.05%	07:00	17:00	8	16:15	FNA Comdty		12:00	16:15	12	Vwap	2	07:05	09:05	07:05	09:05	0	0	0						NGF	IPE		Y	Y	N	N	N		N				
Y	2401	Gasoil@ICE	[111111111111]	1	0.05%	01:00	23:00	8	16:30	QSA Comdty	LGO	12:30	16:30	20	Vwap	10	01:05	03:05	01:05	03:05	1.8	0.75	0	0.9	1.35	Y	Y	Y	GOIL	IPE	01:00	Y	Y	Y	Y	Y		Y	1.65	1.85	1.35	
Y	2402	Heating Oil@NYM	[111111111111]	1	0.05%	18:05	17:00	8	14:30	HOA Comdty	HO	12:00	12:30	20	Vwap	10	20:00	22:00	20:00	22:00	0.9	0	0						HO	NYMEX	09:00	Y	Y	Y	Y	Y		Y				
Y	2403	Gasoline RBOB@NYM	[111111111111]	1	0.05%	18:05	17:00	8	14:30	XBA Comdty	RB	12:30	14:30	20	Vwap	10	20:00	22:00	20:00	22:00	1.95	0	1	1.7		N	Y	N	RB	NYMEX	09:00	Y	Y	Y	Y	Y		Y	1.75	1.75		
N	2404	Heating Oil@ICE	[111111111111]	1	0.05%	01:00	22:59	8	19:30	NVA Comdty	LHO	12:00	19:30	20	Vwap	10	01:05	03:05	01:05	03:05	0	0	0						HOIL	IPE		Y	Y	N	N	N		N				
N	2405	Gasoline RBOB@ICE	[111111111111]	1	0.05%	01:00	22:59	8	16:30	PGA Comdty	LRB	12:00	16:30	20	Vwap	10	01:05	03:05	01:05	03:05	0	0	0						RBOT	IPE		Y	Y	N	N	N		N				
N	2406	Bitumen@SHF	[111111111111]	1	0.05%	21:00	15:00	8		BITA Comdty		12:00		20	Vwap	10	21:05	23:05	21:05	23:05	0	0	0									N	N	N	N	N		N				
Y	3101	10-year US Treasury@CBT	[001001001001]	1	0.01%	17:05	16:00	8	14:00	TYA Comdty	ZN	12:00	14:00	20	Vwap	10	19:05	21:05	19:05	21:05	1.55	0.9	0	1.35	0.85	Y	Y	Y	ZN	ECBOT		Y	Y	Y	Y	Y		Y	0.7	1.35	0.85	"long sr 1.37, logret 7.2"
Y	3102	Euro Bund@EUX	[001001001001]	1	0.01%	08:00	22:10	8	17:15	RXA Comdty	FGBL	12:00	17:15	20	Vwap	10	08:05	10:05	08:05	10:05	1.35	1.7	0	1.25	0.95	Y	Y	Y	GBL	DTB		Y	Y	Y	Y	Y		Y	1.25	1.25	1.6	"long sr 3.24, short sr 2.43"
Y	3103	5-year US Treasury@CBT	[001001001001]	1	0.01%	17:05	16:00	8	14:00	FVA Comdty	ZF	12:00	14:00	20	Vwap	10	19:05	21:05	19:05	21:05	1.75	0.95	0	1	0.95	Y	Y	Y	ZF	ECBOT		Y	Y	Y	Y	Y		Y	0.8	0.8	0.95	
Y	3104	Euro Bobl@EUX	[001001001001]	1	0.01%	08:00	22:05	8	17:15	OEA Comdty	FGBM	12:00	17:15	20	Vwap	10	08:05	10:05	08:05	10:05	1.55	1.6	0	1.5	1.2	Y	Y	Y	GBM	DTB		Y	Y	Y	Y	Y		N	1.15	1.5	1.15	
N	3105	Euro Schatz@EUX	[001001001001]	1	0.01%	08:00	22:00	8	17:15	DUA Comdty	FGBS	12:00	17:15	20	Vwap	10	08:05	10:05	08:05	10:05	0	0	0						GBS	DTB		Y	Y	N	N	N		N				
Y	3106	30-year US Treasury @CBT	[001001001001]	1	0.01%	17:05	16:00	8	14:00	USA Comdty	ZB	12:00	14:00	20	Vwap	10	19:05	21:05	19:05	21:05	1.25	1.85	0	1.95	0.55	Y	Y	Y	ZB	ECBOT		Y	Y	Y	Y	Y		Y	0.95	1.95	1.15	short sr 3.2
Y	3107	Long Gilt@LIF	[001001001001]	1	0.01%	08:00	18:00	8	16:15	G A Comdty	FLG	12:00	13:30	20	Vwap	10	08:05	10:05	08:05	10:05	1.7	1.65	1	1.5		N	Y	N	R	ICEEU		Y	Y	Y	Y	Y		N	1.5	1.5	1.75	short sr 1.2
N	3108	2-Year US Treasury@CBT	[001001001001]	1	0.01%	17:05	16:00	8	14:00	TUA Comdty	ZT	12:00	14:00	20	Vwap	10	19:05	21:05	19:05	21:05	0	0	0						ZT	ECBOT		Y	Y	N	N	N		N				
N	3109	3-Year Australian @SFE	[001001001001]	1	0.01%	17:05	16:30	8	16:30	YMA Comdty	YTT	12:00	16:30	20	Vwap	10	10:30	12:30	10:30	12:30	0	0	0						YT	SNFE		Y	Y	N	N	N		N				
N	3110	10-Year Australian@SFE	[001001001001]	1	0.01%	17:05	16:30	8	16:30	XMA Comdty	YTC	12:00	16:30	20	Vwap	10	10:30	12:30	10:30	12:30	0	0	0						XT	SNFE		Y	Y	N	N	N		N				
N	3111	3-Year Korea@KFE	[001001001001]	1	0.01%	08:00	15:45	8		KEA Comdty	KTB	12:00		20	Twap	10	08:05	10:05	08:05	10:05	0	0	0						3KTB	KSE		Y	Y	N	N	N		N				
Y	3112	US Treasury Ultra Bond@CBT	[001001001001]	1	0.01%	17:05	16:00	8	14:00	WNA Comdty	AUL	12:00	14:00	20	Vwap	10	19:05	21:05	19:05	21:05	0	1.75	0	0.75	1.75	Y	Y	Y	UB	ECBOT		Y	Y	Y	Y	Y		Y	0.85	0.85	1.75	
Y	3113	10-year Canadian Govt Bond@MSE	[001001001001]	1	0.01%	06:00	16:30	8	15:00	CNA Comdty	CGB 	12:00	15:00	20	Vwap	10	06:05	08:05	06:05	08:05	1.85	1.4	0	2	1.2	Y	Y	Y	CGB	CDE		Y	Y	Y	Y	N		Y	1.15	2	1.2	
N	3114	5-year Canadian Govt Bond@MSE	[001001001001]	1	0.01%	06:00	16:30	8	15:00	XQA Comdty	CGF	12:00	15:00	20	Vwap	10	06:05	08:05	06:05	08:05	0	0	0						CGF	CDE		Y	Y	N	N	N		N				
Y	3115	10-year Italian Govt Bond@EUX	[001001001001]	1	0.01%	08:00	19:06	8	17:15	IKA Comdty	FBTP	12:30	17:15	20	Vwap	10	08:05	10:05	08:05	10:05	1.4	1.2	1	0.55	1.25	N	Y	N	BTP	DTB		Y	Y	N	Y	N		N	1.4	1.4	1.25	shrot sr 1.06
Y	3116	French Govt Bond@EUX	[001001001001]	1	0.01%	08:00	20:00	8	17:15	OATA Comdty	FOAT	12:30	17:15	20	Vwap	10	08:05	10:05	08:05	10:05	1.65	0	1	1.3		N	Y	N	OAT	DTB		Y	Y	N	N	N		N	1.6	1.3		"short sr always less than 0.37, short period"
N	3117	10-year Japan Govt Bond@TSE	[001001001001]	1	0.01%	08:45	15:05	8	14:55	JBA Comdty	JGB	11:00	12:55	20	Vwap	10	08:50	10:50	08:50	10:50	0	0	-1		1.15	N	N	Y	JGB	TSEJ		Y	Y	N	N	N		Y			1.15	short sr 2.35
N	3118	10-Year Korea Treasury Bond@KFE	[001001001001]	1	0.01%	08:00	15:45	8		KAAA Comdty	10TB	12:00		12	Vwap	2	08:05	10:05	08:05	10:05	0	0	0						FLKTB	KSE		Y	Y	N	N	N		N				
Y	3119	Euro Buxl@EUX	[001001001001]	1	0.01%	08:00	22:00	8	17:15	UBA Comdty	FGBX	12:30	17:15	20	Vwap	10	08:05	10:05	08:05	10:05	1.5	1.15	0	1.45	1.4	Y	Y	Y	GBX	DTB		Y	Y	Y	Y	Y	new	N	1.4	1.5	1.4	short sr 3.4
N	3120	3-year Italian Bond@EUX	[001001001001]	1	0.01%	08:00	20:00	8	17:15	BTSA Comdty	FBTS	12:00	17:15	12	Vwap	10	08:05	10:05	08:05	10:05	0	0	0						BTS	DTB		Y	Y	N	N	N	new	N				
N	3121	5-year Swedish Govt Bonde@PMI	[001001001001]	1	0.01%	09:15	16:00	8		SKA Comdty		12:00		12	Vwap	10	09:20	11:20	09:20	11:20	0	0	0									N	N	N	N	N		N				
N	3122	2-year Swedish @PMI	[001001001001]	1	0.01%	09:15	17:20	8		SLA Comdty		12:00		12	Vwap	10	09:20	11:20	09:20	11:20	0	0	0									N	N	N	N	N		N				
N	3124	5-year China Govt Bond@CFF	[001001001001]	1	0.01%	09:10	15:15	8		TFCA Comdty		12:00		12	Vwap	10	09:15	11:15	09:15	11:15	0	0	0									N	N	N	N	N		N				
Y	3201	USD Index@FNX	[001001001001]	1	0.01%	20:00	18:00	8	15:00	DXA Curncy	DX	12:00	12:00	20	Vwap	10	20:05	22:05	20:05	22:05	1.6	0	0	1.1	1.75	Y	Y	Y	DX	NYBOT		Y	Y	Y	Y	Y		Y	1.1	1.1	1.85	"long sr 3.5, short sr 1.55"
Y	3202	EUR/GBP@CME	[001001001001]	1	0.01%	17:05	16:00	8	14:00	RPA Curncy	RP	12:00	14:00	40	Vwap	30	19:05	22:05	19:05	22:05	1.8	0	1	1.9		N	Y	N	RP	GLOBEX	17:00	Y	Y	N	Y	N		N	1.9	1.9		long sr 1.5
N	3203	EUR/JPY@CME	[001001001001]	1	0.01%	17:05	16:00	8	14:00	RYA Curncy	RY	12:00	14:00	40	Vwap	30	19:05	22:05	19:05	22:05	0	0	1	0.85		N	Y	N	RY	GLOBEX		Y	Y	N	Y	N		N	1.5	0.85	1.45	ls sr 1.5; long sr 1.4; short sr 1
N	3204	EUR/CHF@CME	[001001001001]	1	0.01%	17:05	16:00	8	14:00	RFA Curncy	RF	12:00	14:00	40	Vwap	30	19:05	22:05	19:05	22:05	0	0	1	1.9		N	Y	N	RF	GLOBEX		Y	Y	N	N	N		N	1.9	1.9		short not work
Y	3205	JPY/USD@CME	[001001001001]	1	0.01%	17:05	16:00	8	14:00	JYA Curncy	JY	12:00	14:00	20	Vwap	10	19:05	21:05	19:05	21:05	1.1	0.5	0	1.1	1.2	Y	Y	Y	JPY	GLOBEX		Y	Y	Y	Y	Y		Y	1.1	1.1	1.2	long sr 1.8; short sr 2.3; 
Y	3206	EUR/USD@CME	[001001001001]	1	0.01%	17:05	16:00	8	14:00	ECA Curncy	URO	12:00	12:30	20	Vwap	10	19:05	21:05	19:05	21:05	1.45	1.25	0	1.6	1.45	Y	Y	Y	EUR	GLOBEX	17:00	Y	Y	Y	Y	Y		Y	1.25	1.6	1.45	
Y	3207	GBP/USD@CME	[001001001001]	1	0.01%	17:05	16:00	8	14:00	BPA Curncy	BP	12:00	14:00	20	Vwap	10	19:05	21:05	19:05	21:05	0	1.1	0	0.9	0.6	Y	Y	Y	GBP	GLOBEX	17:00	Y	Y	Y	Y	Y		Y	0.75	1.7	1.1	
Y	3208	AUD/USD@CME	[001001001001]	1	0.01%	17:05	16:00	8	14:00	ADA Curncy	AD	12:00	12:30	20	Vwap	10	19:05	21:05	19:05	21:05	1.8	1.55	0	0.9	1.25	Y	Y	Y	AUD	GLOBEX		Y	Y	Y	Y	Y		Y	1.45	1.75	1.25	
Y	3209	CAD/USD@CME	[001001001001]	1	0.01%	17:05	16:00	8	14:00	CDA Curncy	CD	12:00	12:30	20	Vwap	10	19:05	21:05	19:05	21:05	1.15	1.45	-1		0.85	N	N	Y	CAD	GLOBEX		Y	Y	Y	Y	Y		Y	0.9		0.9	short sr 3.5
Y	3210	MXN/USD@CME	[001001001001]	1	0.01%	17:05	16:00	8	14:00	PEA Curncy	MP	12:00	12:30	20	Vwap	10	19:05	21:05	19:05	21:05	1	0.7	0	1.6	0.6	Y	Y	Y	MXP	GLOBEX		Y	Y	N	N	N		N	0.7	1.6	0.6	
N	3211	CHF/USD@CME	[001001001001]	1	0.01%	17:05	16:00	8	14:00	SFA Curncy	SF	12:00	14:00	20	Vwap	10	19:05	21:05	19:05	21:05	0	0	-1		1.9	N	N	Y	CHF	GLOBEX	17:00	Y	Y	Y	Y	Y		Y				
Y	3212	NZD/USD@CME	[001001001001]	1	0.01%	17:05	16:00	8	14:00	NVA Curncy	NE	12:00	16:00	30	Vwap	20	19:05	21:05	19:05	21:05	0	1.7	-1		0.8	N	N	Y	NZD	GLOBEX		Y	Y	Y	Y	Y		Y	1.4	1.4	0.8	
N	3223	Bitcoin@CBF	[111111111111]	1	0.03%	15:30	15:15	8	15:00	XBTA Curncy		12:00	15:00	10	Vwap	10	19:05	21:05	19:05	21:05	0	0				N	N	N				N	N	N	N	N	N					
N	3224	Bitcoin@CME	[001001001001]	1	0.03%	17:05	16:00	8	15:00	BTCA Curncy		12:00	15:00	10	Vwap	10	19:05	21:05	19:05	21:05	0	0				N	N	N				N	N	N	N	N	N					
N	3301	Eurodollar 3Mon@CME	[001001001001]	1	0.01%	17:05	16:00	8	14:00	EDA Comdty	ED	12:00	14:00	20	Vwap	10	19:05	21:05	19:05	21:05	0	0	0						GE	GLOBEX		Y	Y	N	N	N		N				
N	3302	Sterling 90 day@LIF	[001001001001]	1	0.01%	07:30	18:00	8	16:15	L A Comdty	FSS	12:00		20	Vwap	10	07:35	09:35	07:35	09:35	0	0	0						L	ICEEU		Y	Y	N	N	N		N				
N	3303	Euribor 3Mon@LIF	[001001001001]	1	0.01%	01:00	21:00	8	16:15	ERA Comdty	FEI	12:00		20	Vwap	10	01:05	03:05	01:05	03:05	0	0	0						I	ICEEU		Y	Y	N	N	N		N				
N	3304	Canadian Bank Bill@MSE	[001001001001]	1	0.01%	06:00	16:30	8	15:00	BAA Comdty	BAX	12:00	15:00	20	Vwap	10	06:05	08:05	06:05	08:05	0	0	0						BAX	CDE		Y	Y	N	N	N		N				
N	3305	Australian Bank Bill@SFE	[001001001001]	1	0.01%	16:58	16:30	8		IRA Comdty	YBA	12:00		20	Vwap	10	10:30	12:30	10:30	12:30	0	0	0						IR	SNFE		Y	Y	N	N	N		N				
N	3306	Swedish IMM@PMI	[001001001001]	1	0.01%	07:00	17:30	8		RAA Comdty		12:00		20	Vwap	10	07:05	09:05	07:05	09:05	0	0	0									N	N	N	N	N		N				
N	3308	Euroswiss 3 Mon@LIF	[001001001001]	1	0.01%	07:30	18:00	8	16:15	ESA Comdty	FES	12:00		20	Vwap	10	07:35	09:35	07:35	09:35	0	0	0						S	ICEEU		Y	Y	N	N	N		N				
N	3309	FedFund 30 Day@CBT	[111111111111]	1	0.01%	17:05	16:00	8	14:00	FFA Comdty	FF	12:00	14:00	20	Vwap	10	19:05	21:05	19:05	21:05	0	0	0						ZQ	ECBOT		Y	Y	N	N	N		N				
N	3310	Interbank Cash Rate 30 Day@SFE	[111111111111]	1	0.01%	17:05	16:30	8		IBA Comdty	YIB	12:00		20	Vwap	10	10:30	12:30	10:30	12:30	0	0	0						IB	SNFE		Y	Y	N	N	N		N				
N	3311	New Zeal Bank Bill 3 mon@SFE	[001001001001]	1	0.01%	17:05	16:30	8		ZBA Comdty	NBB	12:00		20	Vwap	10	10:30	12:30	10:30	12:30	0	0	0									N	N	N	N	N		N				
N	3312	Euroyen Tibor 3 Mon@TFX	[001001001001]	1	0.01%	08:30	20:15	8		YEA Comdty	JEY	12:00		20	Twap	10	08:35	10:35	08:35	10:35	0	0	0									N	N	N	N	N		N				
N	3401	5-year Euro Swapnote@LIF	[001001001001]	1	0.01%	07:00	18:00	8	16:15	T A Comdty	FBO	12:00		20	Vwap	10	07:05	09:05	07:05	09:05	0	0	0						O	ICEEU		Y	Y	N	N	N		N				
N	3402	10-Year Swap@CBT	[001001001001]	1	0.01%	17:05	16:00	8	14:00	CNPA Comdty	NI	12:00	14:00	20	Vwap	10	19:05	21:05	19:05	21:05	0	0	0						N1U	ECBOT		Y	Y	N	N	N		N				
N	3403	2-Year Euro Swapnote@LIF	[001001001001]	1	0.01%	07:00	18:00	8	16:15	RWA Comdty	FBS	12:00		20	Vwap	10	07:05	09:05	07:05	09:05	0	0	0						TWS	ICEEU		Y	Y	N	N	N		N				
N	3404	5-Year Swapnote@CBT	[001001001001]	1	0.01%	17:05	16:00	8	14:00	CFPA Comdty	IR	12:00	14:00	20	Vwap	10	19:05	21:05	19:05	21:05	0	0	0						F1U	ECBOT		Y	Y	N	N	N		N				
N	3405	30-Year Swapnote@CBT	[001001001001]	1	0.01%	17:05	16:00	8	14:00	CBPA Comdty	NTT	12:00	14:00	20	Vwap	10	19:05	21:05	19:05	21:05	0	0	0						B1U	ECBOT		Y	Y	N	N	N		N				
N	3406	2-Year Swapnote@CBT	[001001001001]	1	0.01%	17:05	16:00	8	14:00	CTPA Comdty		12:00	14:00	20	Vwap	10	19:05	21:05	19:05	21:05	0	0	0									N	N	N	N	N		N				
N	3407	10-year Euro Swapnotge@LIF	[001001001001]	1	0.01%	07:00	18:00	8	16:15	P A Comdty	FBP	12:00		20	Vwap	10	07:05	09:05	07:05	09:05	0	0	0						P	ICEEU		Y	Y	N	N	N		N				
N	3501	E-Mini@CME	[001001001001]	1	0.01%	17:05	16:00	8	15:15	ESA Index	ES	12:00	15:15	20	Vwap	10	19:05	21:05	19:05	21:05	0	0	0				N	N	ES	GLOBEX		Y	Y	Y	Y	Y		Y	0.6	0.6		long sr 2.5
Y	3502	Euro Stoxx 50@EUX	[001001001001]	1	0.01%	08:00	22:05	8	17:30	VGA Index	STXE	12:30	18:00	20	Vwap	10	08:05	10:05	08:05	10:05	0.9	0	0	1.45	1.15	Y	Y	Y	ESTX50	DTB		Y	Y	N	Y	N		N	0.7	0.7	1.25	
R3517	3503	Nikkei 225@OSE	[001001001001]	1	0.03%	08:45	15:10	8	15:10	NOA Index		12:00	15:10	20	Vwap	10	08:50	10:50	08:50	10:50	0	0	1						N255M	OSE.JPN		Y	Y	N	N	N		N				
N	3504	CSI 300 China@CFF	[111111111111]	1	0.03%	09:30	11:30	8		IFBA Index		12:00		20	Vwap	10	09:35	11:35	09:35	11:35	0	0	0									N	N	N	N	N		N				
N	3505	Nasdaq 100 E-mini@CME	[001001001001]	1	0.03%	17:05	16:00	8	15:15	NQA Index	NQ	12:00	15:15	20	Vwap	10	19:05	21:05	19:05	21:05	0	0	1	0.55		N	Y	N	NQ	GLOBEX		Y	Y	N	N	N		N	0.65	0.65		
DataIssue	3506	Russell 2000 Mini@NYF	[001001001001]	1	0.03%	20:00	18:00	8	16:15	RTAA Index	TFS	12:00	12:00	20	Vwap	10	20:05	22:05	20:05	22:05	0.55	0	0						TF	NYBOT	20:00	Y	Y	Y	Y	N		Y				
N	3507	DJ Industrial Average Mini@CBT	[001001001001]	1	0.03%	17:05	16:00	8	15:15	DMA Index	YM	12:00	15:15	20	Vwap	10	19:05	21:05	19:05	21:05	0	0	0						YM	ECBOT		Y	Y	N	N	N		N				
N	3508	CAC 40@EOP	[111111111111]	1	0.03%	08:00	22:00	8	17:35	CFA Index	FCE	12:00	17:35	20	Vwap	10	08:05	10:05	08:05	10:05	0	0	0				N	N	CAC40	MONEP		Y	Y	N	N	N		N	0.95	0.95	1.9	
NoGiveup	3509	KOSPI200@KFE	[001001001001]	1	0.03%	18:00	15:46	8	15:15	KMA Index	KS	12:00	15:15	20	Twap	10	18:05	20:05	18:05	20:05	0	0	0						K200	KSE		Y	Y	N	N	N		N				
Y	3510	Hang Seng China Enterprises@HKG	[111111111111]	1	0.03%	09:15	16:30	8	16:15	HCA Index	HCEI	13:30	16:30	20	Vwap	10	09:20	11:20	09:20	11:20	0	1.5	0	1.2	1.1	Y	Y	Y	HHI.HK	HKFE		Y	Y	Y	Y	N		N	1.15	1.2	1.1	
Y	3511	DAX Index@EUX	[001001001001]	1	0.03%	08:00	22:05	8	17:30	GXA Index	FDX	12:30	17:30	20	Vwap	10	08:05	10:05	08:05	10:05	1.2	0	-1		1.4	N	N	Y	DAX	DTB		Y	Y	Y	Y	N		Y	0.75	0.75	1.4	
N	3512	FTSE China A50@SGX	[111111111111]	1	0.03%	09:00	16:35	8	16:30	XUA Index	SFC	12:00	16:30	20	Vwap	10	09:05	11:05	09:05	11:05	0	0	0	1.75	1.8	Y	Y	Y	XINA50	SGX		Y	Y	N	N	N	liq and gap	N	1.75	1.75	1.8	
N	3513	Nikkei 225@SGX	[001001001001]	1	0.03%	07:30	14:30	8	14:25	NIA Index	SSI	12:00	14:25	20	Vwap	10	08:35	09:35	08:35	09:35	0	0	0	0.6	1.8	Y	Y	Y	N225U	SGX		Y	Y	Y	Y	N		Y	0.6	0.6	1.8	
Y	3514	FTSE 100@LIF	[001001001001]	1	0.03%	01:00	21:00	8	16:30	Z A Index	FFI	12:30	16:35	20	Vwap	10	01:05	03:05	01:05	03:05	1.55	0	0	1.85	1.65	Y	Y	Y	Z	ICEEU		Y	Y	N	N	Y		N	1.55	1.55	1.65	
Y	3515	Hang Seng@HKG	[111111111111]	1	0.03%	09:15	16:30	8	16:15	HIA Index	HSI	16:00	16:15	20	Vwap	10	09:20	11:20	09:20	11:20	1.4	0	0	0.55	0.7	Y	Y	Y	HSI	HKFE		Y	Y	Y	Y	N		N	0.55	0.55	0.7	short sr 2.84
Y	3516	MSCI Taiwan@SGX	[111111111111]	1	0.03%	08:45	13:50	8	13:45	TWA Index	STW	12:00	13:45	20	Vwap	10	08:50	10:50	08:50	10:50	2.5	0	0						STW	SGX		Y	Y	N	Y	N		N				Vwap failed without rejection during aution period 13:45--13:50 sometimes
N	3517	Nikkei 225@OSE	[001001001001]	1	0.03%	08:45	15:10	8	15:10	NKA Index	JNI	12:00	15:10	20	Vwap	10	08:50	10:50	08:50	10:50	0	0	0	0.55	1.3	Y	Y	Y	N225	OSE.JPN		Y	Y	N	N	N		Y	0.55	0.55	1.3	short sr 2.04; long sr 1.9
Y	3518	CNX Nifty @SGX	[111111111111]	1	0.03%	09:00	18:15	8	18:10	IHA Index	SIN	12:00	18:10	20	Vwap	10	09:05	11:05	09:05	11:05	1.6	1.9	0	0.7	1.25	Y	Y	Y	NIFTY	SGX		Y	Y	N	N	N		N	0.7	0.7	1.15	
Y	3519	Nikkei 225@CME	[001001001001]	1	0.03%	17:05	16:00	8	15:15	NHA Index	NIY	12:00	15:15	20	Vwap	10	19:05	21:05	19:05	21:05	0	1.6	0						NIY	GLOBEX		Y	Y	N	Y	N		N				
N	3520	Euro Stoxx 600 Auto@EUX	[001001001001]	1	0.03%	08:00	22:00	8	17:30	EBA Index	FESA	12:00	17:30	20	Vwap	10	08:05	10:05	08:05	10:05	0	0	0						ESA	DTB		Y	Y	N	N	N		N				
N	3521	OMXS30@SSE	[111111111111]	1	0.03%	09:00	17:30	8	17:25	QCA Index		12:00	17:25	20	Vwap	10	09:05	11:05	09:05	11:05	0	0	0						OMXS30	OMS		Y	Y	N	N	N		N				l/s sharpe 1.2
N	3522	TOPIX@TSE	[001001001001]	1	0.03%	08:45	15:10	8	15:10	TPA Index	TLFI	12:00	15:10	20	Vwap	10	08:50	10:50	08:50	10:50	0	0	0						TOPX	TSEJ		Y	Y	N	N	N		N				
NotCFTC	3523	Swiss Index@EUX	[001001001001]	1	0.03%	08:00	22:05	8	17:20	SMA Index	FSMI	12:00	17:20	20	Vwap	10	08:05	10:05	08:05	10:05	0	0	0						SMI	SOFFEX		Y	Y	N	Y	N		N				
Y	3524	MSCI Singapore@SGX	[111111111111]	1	0.03%	08:30	17:10	8	17:05	QZA Index	SSG	12:00	17:05	20	Vwap	10	08:35	10:35	08:35	10:35	1.75	0	1	0.75	0.65	N	Y	N	SSG	SGX		Y	Y	N	N	N		N	0.55	0.55	0.65	strange volume pattern
N	3525	Nikkei 225@CME	[001001001001]	1	0.03%	17:05	16:00	8	15:15	NXA Index	NK	12:00	15:15	20	Vwap	10	19:05	21:05	19:05	21:05	0	0	1	1.85		N	Y	N	NKD	GLOBEX		Y	Y	N	N	N		N	1.85	1.85		
N	3526	Hang Seng Mini@HKG	[111111111111]	1	0.03%	09:15	16:30	8	16:15	HUA Index	HMH	12:00	16:15	20	Vwap	10	09:20	11:20	09:20	11:20	0	0	0						MHI	HKFE		Y	Y	N	N	N		N				
Y	3527	MSCI Emerging Market@NYL	[001001001001]	1	0.03%	09:20	17:59	8	16:00	MESA Index	MEM	12:00	16:15	20	Vwap	10	09:25	12:25	09:25	12:25	0	2.5	0						MXEF	NYSELIFFE		Y	Y	N	N	N		N				
Y	3528	ASX SPI 200@SFE	[001001001001]	1	0.03%	09:50	16:30	8	16:30	XPA Index	YAP	12:00	16:30	20	Vwap	10	09:55	11:55	09:55	11:55	1.2	0	1	0.85		N	Y	N	SPI	SNFE		Y	Y	N	N	N		N	1.1	0.65		
N	3529	Euro Stoxx 50 DVD@EUX	[000000000001]	1	0.03%	08:00	20:00	8	17:30	DEDA Index	FEXD	12:00	17:30	20	Vwap	10	08:05	10:05	08:05	10:05	0	0	0						DESX5	DTB		Y	Y	N	N	N		N				
N	3530	SP400 E-Mini@CME	[001001001001]	1	0.03%	17:05	16:00	8	15:15	FAA Index	DM	12:00	15:15	20	Vwap	10	19:05	21:05	19:05	21:05	0	0	0						EMD	GLOBEX	17:00	Y	Y	N	Y	N		N				
NotCFTC	3531	Euro STOXX Banks@EUX	[001001001001]	1	0.03%	08:00	22:00	8	17:30	CAA Index	FESB	12:00	17:30	20	Vwap	10	08:05	10:05	08:05	10:05	1.55	0	0						SX7E	DTB		Y	Y	Y	Y	N		Y				
N	3532	Amsterdam Index@EOE	[111111111111]	1	0.03%	08:00	22:00	8	17:35	EOA Index		12:00	17:35	20	Vwap	10	08:05	10:05	08:05	10:05	0	0	0				N	N	EOE	FTA		Y	Y	N	N	N		N	1.85	1.85		
N	3533	Mini TOPIX@TSE	[001001001001]	1	0.03%	08:45	15:10	8		TMIA Index		12:00		20	Vwap	10	08:50	10:50	08:50	10:50	0	0	0						MNTPX	TSEJ		Y	Y	N	N	N		N				
N	3534	Euro Stoxx Mdia@EUX	[001001001001]	1	0.03%	08:00	22:00	8	17:30	NMA Index	FESM	12:00	17:30	20	Vwap	10	08:05	10:05	08:05	10:05	0	0	0						ESM	DTB		Y	Y	N	N	N		N				
Y	3535	SP Toronto 60@MSE	[001001001001]	1	0.03%	06:00	16:15	8	15:00	PTA Index	SXF	15:00	16:15	20	Vwap	10	06:05	08:05	06:05	08:05	1.85	0	1	0.65		N	Y	N	TSE60	CDE	06:00	Y	Y	N	Y	N		N	0.65	0.65		"SST not work with timequeue, CMKT, STP not supported"
N	3536	Hang Seng China Enterprises Mini@HKG	[111111111111]	1	0.03%	09:15	16:30	8	16:15	MHCA Index	HMCE	12:00	16:15	20	Vwap	10	09:20	11:20	09:20	11:20	0	0	0						MCH.HK	HKFE		Y	Y	N	N	N		N				
N	3537	Euro Stoxx Oil & Gas@EUX	[001001001001]	1	0.03%	08:00	22:00	8	17:30	QRA Index	FESE	12:00	17:30	20	Vwap	10	08:05	10:05	08:05	10:05	0	0	0						ESE	DTB		Y	Y	N	N	N		N				
N	3538	mini MSCI EAFE Index@NYL	[001001001001]	1	0.03%	09:20	17:59	8	16:00	MFSA Index	MFS	12:00	16:15	20	Vwap	10	09:25	12:25	09:25	12:25	0	0	0						MXEA	NYSELIFFE		Y	Y	N	N	N		N				
N	3539	Euro Stoxx Small@EUX	[001001001001]	1	0.03%	08:00	20:00	8	17:30	SXEA Index	FSCE	12:00	17:30	20	Vwap	10	08:05	10:05	08:05	10:05	0	0	0						DJESS	DTB		Y	Y	N	N	N		N				
N	3540	Stoxx Telecom@EUX	[001001001001]	1	0.03%	08:00	22:00	8	17:30	WZA Index	FEST	12:00	17:30	20	Vwap	10	08:05	10:05	08:05	10:05	0	0	0						SXKE	DTB		Y	Y	N	N	N		N				
N	3541	FTSE 100 Dividend Index @LIF	[000000000001]	1	0.03%	08:00	17:30	8	16:30	UKDA Index	LXZ	12:00		20	Vwap	10	08:05	10:05	08:05	10:05	0	0	0						F1DV	ICEEU		Y	Y	N	N	N		N				
N	3542	Euro Stoxx Utilities@EUX	[001001001001]	1	0.03%	08:00	22:00	8	17:30	ITA Index	FESU	12:00	17:30	20	Vwap	10	08:05	10:05	08:05	10:05	0	0	0						ESU	DTB		Y	Y	N	N	N		N				
N	3543	RDXUSD Index@EUX	[001001001001]	1	0.03%	08:00	20:00	8	17:30	RXDA Index	FRDX	12:00	17:30	20	Vwap	10	08:05	10:05	08:05	10:05	0	0	0						RDXUSD	DTB		Y	Y	N	N	N		N				
N	3544	Stoxx 50@EUX	[001001001001]	1	0.03%	08:00	22:00	8	17:30	VHA Index	STXX	12:00	17:30	20	Vwap	10	08:05	10:05	08:05	10:05	0	0	0						STX	DTB		Y	Y	N	N	N		N				
N	3545	Stoxx 600 Auto & Part@EUX	[001001001001]	1	0.03%	08:00	22:00	8	17:30	SXA Index	FSTA	12:00	17:30	20	Vwap	10	08:05	10:05	08:05	10:05	0	0	0						SXAP	DTB		Y	Y	N	N	N		N				
N	3546	Stoxx 600 Banks@EUX	[001001001001]	1	0.03%	08:00	22:00	8	17:30	BJA Index	FSTB	12:00	17:30	20	Vwap	10	08:05	10:05	08:05	10:05	0	0	0						SX7P	DTB		Y	Y	N	N	N		N				
N	3547	HSCEI Dividend Point Index@HKG	[000000000001]	1	0.03%	09:15	12:00	8	16:15	DHCA Index	DHH	12:00	16:15	20	Vwap	10	09:20	11:20	09:20	11:20	0	0	0						HHIDPI	HKFE		Y	Y	N	N	N		N				
N	3548	Stoxx 600 Basic Resources@EUX	[001001001001]	1	0.03%	08:00	22:00	8	17:30	JSA Index	FSTS	12:00	17:30	20	Vwap	10	08:05	10:05	08:05	10:05	0	0	0						SXPP	DTB		Y	Y	N	N	N		N				
N	3549	Russell 1000 Mini@NYF	[001001001001]	1	0.03%	20:00	18:00	8	16:15	RMA Index	RMF	12:00	15:00	20	Vwap	10	20:05	22:05	20:05	22:05	0	0	0						RYO	NYBOT		Y	Y	N	N	N		N				
N	3550	Stoxx 600 Food & Beverage@EUX	[001001001001]	1	0.03%	08:00	22:00	8	17:30	PFA Index	FSTO	12:00	17:30	20	Vwap	10	08:05	10:05	08:05	10:05	0	0	0						SX3P	DTB		Y	Y	N	N	N		N				
N	3551	Nikkei Dividend @SGX	[000000000001]	1	0.03%	07:30	14:25	8	14:20	MNDA Index		12:00	14:20	20	Vwap	10	08:35	09:35	08:35	09:35	0	0	0						NKYDIV	SGX		Y	Y	N	N	N		N				
N	3552	Stoxx Healthcare@EUX	[001001001001]	1	0.03%	08:00	22:00	8	17:30	HGA Index	FSTH	12:00	17:30	20	Vwap	10	08:05	10:05	08:05	10:05	0	0	0						SXDP	DTB		Y	Y	N	N	N		N				
N	3553	MSCI Indonesia @SGX	[111111111111]	1	0.03%	09:00	17:30	8	17:25	IDOA Index		12:00	17:25	20	Vwap	10	09:05	11:05	09:05	11:05	0	0	0						MXID	SGX		Y	Y	N	N	N		N				
N	3554	Stoxx 600 Industrial@EUX	[001001001001]	1	0.03%	08:00	22:00	8	17:30	QBA Index	FSTG	12:00	17:30	20	Vwap	10	08:05	10:05	08:05	10:05	0	0	0						SXNP	DTB		Y	Y	N	N	N		N				
N	3555	DAX mid-cap@EUX	[001001001001]	1	0.03%	08:00	22:00	8	17:30	MFA Index	HMCE	12:00	17:30	20	Vwap	10	08:05	10:05	08:05	10:05	0	0	0						MDAX	DTB		Y	Y	N	N	N		N				
N	3556	STOXX 600 Insurance@EUX	[001001001001]	1	0.03%	08:00	22:00	8	17:30	JVA Index	FSTI	12:00	17:30	20	Vwap	10	08:05	10:05	08:05	10:05	0	0	0						SXIP	DTB		Y	Y	N	N	N		N				
N	3558	Stoxx 600 Media@EUX	[001001001001]	1	0.03%	08:00	22:00	8	17:30	OMA Index	FSTM	12:00	17:30	20	Vwap	10	08:05	10:05	08:05	10:05	0	0	0						SXMP	DTB		Y	Y	N	N	N		N				
N	3559	Stoxx 600 Oil & Gas@EUX	[001001001001]	1	0.03%	08:00	22:00	8	17:30	KGA Index	FSTE	12:00	17:30	20	Vwap	10	08:05	10:05	08:05	10:05	0	0	0						SXEP	DTB		Y	Y	N	N	N		N				
N	3560	Russell 1000 value@NYF	[001001001001]	1	0.03%	20:00	18:00	8	16:15	RVBA Index	IRV	12:00		20	Vwap	10	20:05	22:05	20:05	22:05	0	0	0						RLV	NYBOT		Y	Y	N	N	N		N				
N	3561	Stoxx 600 Telecom@EUX	[001001001001]	1	0.03%	08:00	22:00	8	17:30	WQA Index	FSTT	12:00	17:30	20	Vwap	10	08:05	10:05	08:05	10:05	0	0	0						SXKP	DTB		Y	Y	N	N	N		N				
N	3562	Stoxx 600 Utilities@EUX	[001001001001]	1	0.03%	08:00	22:00	8	17:30	GPA Index	FSTU	12:00	17:30	20	Vwap	10	08:05	10:05	08:05	10:05	0	0	0						SX6P	DTB		Y	Y	N	N	N		N				
N	3563	Stoxx Europe Large 200@EUX	[001001001001]	1	0.03%	08:00	20:00	8	17:30	SXPA Index	FLCP	12:00	17:30	20	Vwap	10	08:05	10:05	08:05	10:05	0	0	0						DJ200L	DTB		Y	Y	N	N	N		N				
N	3564	Mini SP Toronto 60@MSE	[001001001001]	1	0.03%	06:00	16:00	8	15:00	MPTA Index	FCS	12:00	15:00	20	Vwap	10	06:05	08:05	06:05	08:05	0	0	0									N	N	N	N	N		N				
N	3565	Stoxx Europe Small 200@EUX	[001001001001]	1	0.03%	08:00	20:00	8	17:30	SXTA Index	FMCE	12:00	17:30	20	Vwap	10	08:05	10:05	08:05	10:05	0	0	0						DJ200S	DTB		Y	Y	N	N	N		N				
N	3566	S&P Mid-cap@CME	[001001001001]	1	0.03%	08:45	16:00	8	15:15	MDA Index	MD	12:00	15:15	20	Vwap	10	19:05	21:05	19:05	21:05	0	0	0						EMD	GLOBEX		Y	Y	N	N	N		N				
N	3567	Russell 1000 Growth@NYF	[001001001001]	1	0.03%	20:00	18:00	8	16:15	RGAA Index	IRG	12:00		20	Vwap	10	20:05	22:05	20:05	22:05	0	0	0						RLG	NYBOT		Y	Y	N	N	N		N				
N	3568	DJ Industrial Average@CBT	[001001001001]	1	0.03%	08:45	15:15	8	15:15	DJA Index	DJ	12:00	15:15	20	Vwap	10	19:05	21:05	19:05	21:05	0	0	0						INDU	ECBOT		Y	Y	N	N	N		N				
N	3569	Stoxx 600 @EUX	[001001001001]	1	0.03%	08:00	20:00	8	17:30	SXOA Index	FXXP	12:00	17:30	20	Vwap	10	08:05	10:05	08:05	10:05	0	0	0						DJ600	DTB		Y	Y	N	N	N		N				
N	3570	Italian Index@MIL	[001001001001]	1	0.03%	08:30	20:50	8	17:35	STA Index		12:00	17:35	20	Vwap	10	08:35	10:35	08:35	10:35	0	0	1	1.65		N	Y	N	FTMIB	IDEM		Y	Y	N	N	N		N	1.65	1.65		
ToAdd	3572	Brazil Index@BMF	[010101010101]	1	0.03%	08:55	18:20	8	17:55	XBA Index	WIN	12:00	17:55	20	Twap	10	09:00	11:00	09:00	11:00	0.45	1.65	0	0.5	0.85		Y	Y	IBOV	BOVESPA		Y	Y	N	N	N		N	0.85	0.85	0.85	1/s sharpe 4.5; long sr 4.11; short sr 2.15
NotTB	3575	South African Index@SAF	[001001001001]	1	0.03%	08:30	17:30	8	17:30	AIA Index	ALSI	12:00	17:30	20	Vwap	10	08:35	10:35	08:35	10:35	0	0	0						TOP40	HKFE		Y	Y	N	N	N		N				
N	3576	Spain Index@MFM	[111111111111]	1	0.03%	08:00	20:00	8	17:30	IBA Index	MFXI	12:00	17:30	20	Vwap	10	08:05	10:05	08:05	10:05	0	0	0	1.5	1.65	Y	Y	Y	IBEX35	MEFFRV		Y	Y	N	N	N		N	1.5	1.5	1.65	
NotCFTC	3579	Norwegian Index@OBX	[111111111111]	1	0.03%	08:30	16:30	8	16:20	OIA Index		12:00	16:20	20	Vwap	10	08:35	10:35	08:35	10:35	0	0	0									N	N	N	N	N		N				
N	3580	MSCI Europe Index Mini@NYL	[001001001001]	1	0.03%	18:05	17:59	8	16:15	MCEA Index	MEE	12:00	16:15	20	Vwap	10	20:05	22:05	20:05	22:05	0	0	0						MSPE	NYSELIFFE		Y	Y	N	N	N		N				
N	3581	Mexican Index@MDX	[001001001001]	1	0.03%	08:00	15:00	8	15:00	ISA Index		12:00	15:00	20	Vwap	10	08:05	10:05	08:05	10:05	0	0	0						IPC	MEXI		Y	Y	N	N	N		N				
NoGiveup	3582	 TAIPEX@FTX 	 [111111111111] 	1	0.03%	15:00	13:45	8	13:45	 FTA Index 		12:00	13:45	20	 Vwap 	10	15:05	17:05	15:05	17:05	0	0	0									 N 	 N 	 N 	 N 	 N 						
NotTB	3583	DTOP@SAF	[001001001001]	1	0.03%	08:30	19:30	8	17:30	DVA Index		12:00	17:30	20	Vwap	10	08:35	10:35	08:35	10:35	0	0	0									N	N	N	N	N						
N	3585	JPX Nikkei 400@OSE	[001001001001]	1	0.03%	08:45	15:10	8	15:10	JPWA Index		12:00	15:10	20	Vwap	10	08:50	10:50	08:50	10:50	0	0	0									N	N	N	N	N						
N	3601	CBOE VIX@CBF	[111111111111]	1	0.03%	15:30	15:15	8	15:15	UXA Index	VX	12:00	15:15	20	Vwap	10	19:05	21:05	19:05	21:05	0	0	0						VIX	CFE		Y	Y	N	N	N		N				
N	3602	Vstoxx Mini@EUX	[111111111111]	1	0.03%	08:00	22:00	8	17:30	FVSA Index	FVS	12:00	17:30	20	Vwap	10	08:05	10:05	08:05	10:05	0	0	0						V2TX	DTB		Y	Y	N	N	N		N				
N	4101	Steel Rebar@SHF	[111111111111]	1	0.05%	21:00	15:00	8		RBTA Comdty		12:00		20	Vwap	10	21:05	23:05	21:05	23:05	0	0	0									N	N	N	N	N		N				
N	4102	Copper@SHF	[111111111111]	1	0.05%	21:00	15:00	8		CUA Comdty		12:00		20	Vwap	10	21:05	23:05	21:05	23:05	0	0	0									N	N	N	N	N		N				
N	4103	Iron Ore@DCE	[111111111111]	1	0.05%	21:00	16:00	8		IOEA Comdty		12:00		20	Vwap	10	21:05	23:05	21:05	23:05	0	0	0									N	N	N	N	N		N				
N	4104	Zinc@SHF	[111111111111]	1	0.05%	21:00	15:00	8		ZNAA Comdty		12:00		20	Vwap	10	21:05	23:05	21:05	23:05	0	0	0									N	N	N	N	N		N				
N	4105	Alumninum@LME	[111111111111]	1	0.05%	00:00	23:45	8	17:00	LAA Comdty		12:00	17:00	20	Vwap	10	00:05	02:05	00:05	02:05	0	0	0									N	N	N	N	N		N				
Y	4106	Copper@CMX	[001010101001]	1	0.05%	18:05	17:00	8	13:00	HGA Comdty	HG	12:00	13:00	20	Vwap	10	19:05	21:05	19:05	21:05	1.6	1.6	0	0.8	1.6	Y	Y	Y	HG	NYMEX	08:10	Y	Y	Y	Y	Y		Y	1.6	0.8		
N	4107	Copper@LME	[111111111111]	1	0.05%	00:00	23:45	8	17:00	LPA Comdty		12:00	17:00	20	Vwap	10	00:05	02:05	00:05	02:05	0	0	0									N	N	N	N	N		N				
N	4108	Zinc@LME	[111111111111]	1	0.05%	00:00	23:45	8	17:00	LXA Comdty		12:00	17:00	20	Vwap	10	00:05	02:05	00:05	02:05	0	0	0									N	N	N	N	N		N				
N	4109	Alumninum@SHF	[111111111111]	1	0.05%	21:00	15:00	8	17:00	AAA Comdty		12:00	17:00	20	Vwap	10	21:05	23:05	21:05	23:05	0	0	0									N	N	N	N	N		N				
N	4110	Nickel@LME	[111111111111]	1	0.05%	00:00	23:45	8	17:00	LNA Comdty		12:00	17:00	20	Vwap	10	00:05	02:05	00:05	02:05	0	0	0									N	N	N	N	N		N				
N	4111	Lead@LME	[111111111111]	1	0.05%	00:00	23:45	8	17:00	LLA Comdty		12:00	17:00	20	Vwap	10	00:05	02:05	00:05	02:05	0	0	0									N	N	N	N	N		N				
N	4112	NASAAC@LME	[111111111111]	1	0.05%	00:00	23:45	8	17:00	LKA Comdty		12:00	17:00	20	Vwap	10	00:05	02:05	00:05	02:05	0	0	0									N	N	N	N	N		N				
N	4113	Tim@LME	[111111111111]	1	0.05%	00:00	23:45	8	17:00	LTA Comdty		12:00	17:00	20	Vwap	10	00:05	02:05	00:05	02:05	0	0	0									N	N	N	N	N		N				
N	4114	Lead@SHF	[111111111111]	1	0.05%	21:00	15:00	8	17:00	PBLA Comdty		12:00	17:00	20	Vwap	10	21:05	23:05	21:05	23:05	0	0	0									N	N	N	N	N		N				
N	4118	Iron Ore@SGX	[111111111111]	1	0.05%	20:15	20:00	8	17:00	SCOA Comdty		12:00	17:00	20	Vwap	10	08:30	10:30	08:30	10:30	0	0	0									N	N	N	N	N		N				
N	4201	Rubber@SHF	[101111111110]	1	0.05%	21:00	15:00	8	17:00	RTA Comdty		12:00	17:00	20	Vwap	10	21:05	23:05	21:05	23:05	0	0	0									N	N	N	N	N		N				
N	4202	ZCE Glass @ZCE	[111111111111]	1	0.05%	21:00	15:00	8	15:00	FGLA Comdty		12:00	15:00	20	Vwap	10	21:05	23:05	21:05	23:05	0	0	0									N	N	N	N	N		N				
N	4203	Polyethylene@DCE	[101010101000]	1	0.05%	08:59	16:00	8	17:00	POLA Comdty	HMCE	12:00	17:00	20	Vwap	10	09:04	11:04	09:04	11:04	0	0	0									N	N	N	N	N		N				
N	4204	Pure Terephthalic Acid@ZCE	[111111111111]	1	0.05%	21:00	15:00	8	15:00	PTA Comdty		12:00	15:00	20	Vwap	10	21:05	23:05	21:05	23:05	0	0	0									N	N	N	N	N		N				
N	4205	Blockboard@DCE	[111111111111]	1	0.05%	08:59	16:00	8	17:00	BLCA Comdty		12:00	17:00	20	Vwap	10	09:04	11:04	09:04	11:04	0	0	0									N	N	N	N	N		N				
N	4206	Fibreboard@DCE	[111111111111]	1	0.05%	08:59	16:00	8	17:00	FREA Comdty		12:00	17:00	20	Vwap	10	09:04	11:04	09:04	11:04	0	0	0									N	N	N	N	N		N				
N	4207	Methanol @ZCE	[111111111111]	1	0.05%	21:00	15:00	8	15:00	ZMEA Comdty		12:00	15:00	20	Vwap	10	21:05	23:05	21:05	23:05	0	0	0									N	N	N	N	N		N				
N	4208	Rubber@TCM	[111111111111]	1	0.05%	16:30	15:20	8	17:00	JNA Comdty	JRU	12:00	17:00	20	Vwap	10	09:45	10:45	09:45	10:45	0	0	0						TSR20	SGX		Y	Y	N	N	N		N				
N	4209	Polyvinyl Chloride@DCE	[101010001010]	1	0.05%	08:59	16:00	8	17:00	PVCA Comdty	DPV	12:00	17:00	20	Vwap	10	09:04	11:04	09:04	11:04	0	0	0									N	N	N	N	N		N				
N	4210	Lumber@CME	[101010101010]	1	0.05%	17:05	16:00	8	13:05	LBA Comdty	LB	12:00	13:05	20	Vwap	10	19:05	21:05	19:05	21:05	0	0	0						LB	GLOBEX		Y	Y	Y	Y	Y		Y				
N	4301	Silver @SHF	[111111111111]	1	0.05%	21:00	15:00	8		SAIA Comdty		12:00		20	Vwap	10	21:05	23:05	21:05	23:05	0	0	0									N	N	N	N	N		N				
N	4302	Gold@SHF	[111111111111]	1	0.05%	21:00	15:00	8		AUAA Comdty		12:00		20	Vwap	10	21:05	23:05	21:05	23:05	0	0	0									N	N	N	N	N		N				
Y	4303	Gold @CMX	[010101010001]	1	0.05%	18:05	17:00	8	13:30	GCA Comdty	GC	12:30	13:30	20	Vwap	10	19:05	21:05	19:05	21:05	0.85	0	0	0.85	0.8	Y	Y	Y	GC	NYMEX	08:20	Y	Y	Y	Y	Y		Y	0.8	0.85	0.8	ls sharpe 2.76; long sr 1.6; short sr 2.57
Y	4304	Silver @CMX	[001010101001]	1	0.05%	18:05	17:00	8	13:25	SIA Comdty	SI	12:30	13:25	20	Vwap	10	19:05	21:05	19:05	21:05	0.55	0	0		1.65	Y	Y	Y	SI	NYMEX	08:25	Y	Y	Y	Y	Y		Y			0.9	
N	4305	Gold@TCM	[010101010101]	1	0.05%	18:05	15:20	8		JGA Comdty	JAU	12:00		20	Vwap	10	09:45	10:45	09:45	10:45	0	0	0									N	N	N	N	N		N				
N	4306	Platinum@TCM	[010101010101]	1	0.05%	16:30	15:20	8		JAA Comdty	JPL	12:00		20	Vwap	10	09:45	10:45	09:45	10:45	0	0	0									N	N	N	N	N		N				
N	4307	Platinum@NYM	[100100100100]	1	0.05%	18:05	17:00	8	13:05	PLA Comdty	PL	12:00	13:05	20	Vwap	10	20:00	22:00	20:00	22:00	1.1	1.3	0						PL	NYMEX	08:20	Y	Y	Y	Y	Y		Y				
Y	4309	Palladium@NYM	[001001001001]	1	0.05%	18:05	17:00	8	13:00	PAA Comdty	PA	12:00	13:00	20	Vwap	10	20:00	22:00	20:00	22:00	1	0	0	1.5	1.5	Y	Y	Y	PA	NYMEX	08:30	Y	Y	Y	Y	Y		Y	1.6	1.6		
N	4314	Silver @TCM	[010101010101]	1	0.05%	16:30	15:20	8		JIA Comdty	JSV	12:00		12	Vwap	2	09:45	10:45	09:45	10:45	0	0	0									N	N	N	N	N		N				
N	4315	Palladium@TCM	[010101010101]	1	0.05%	16:30	15:20	8		JMA Comdty	JPA	12:00		12	Vwap	2	09:45	10:45	09:45	10:45	0	0	0									N	N	N	N	N		N				
